[{"OBJECT_NAME":"STARLINK-32430","OBJECT_ID":"2024-229R","EPOCH":"2026-03-09T21:55:31.312704","MEAN_MOTION":15.27605443,"ECCENTRICITY":8.03e-5,"INCLINATION":42.9974,"RA_OF_ASC_NODE":266.1651,"ARG_OF_PERICENTER":311.9352,"MEAN_ANOMALY":48.1431,"EPHEMERIS_TYPE":0,"CLASSIFICATION_TYPE":"U","NORAD_CAT_ID":62207,"ELEMENT_SET_NO":999,"REV_AT_EPOCH":7063,"BSTAR":0.0014626161,"MEAN_MOTION_DOT":0.00040237,"MEAN_MOTION_DDOT":0},{"OBJECT_NAME":"SL-4 R\/B","OBJECT_ID":"2014-021B","EPOCH":"2026-03-09T02:37:43.173408","MEAN_MOTION":15.39160447,"ECCENTRICITY":0.00975963,"INCLINATION":51.6078,"RA_OF_ASC_NODE":340.109,"ARG_OF_PERICENTER":100.9217,"MEAN_ANOMALY":260.2766,"EPHEMERIS_TYPE":0,"CLASSIFICATION_TYPE":"U","NORAD_CAT_ID":39679,"ELEMENT_SET_NO":999,"REV_AT_EPOCH":65618,"BSTAR":0.00043042763,"MEAN_MOTION_DOT":0.00019652,"MEAN_MOTION_DDOT":0}]
